STARLINK-11578 [DTC]    
1 63014C 25032K   26104.13798611  .00098826  00000+0  76769-3 0  1043
2 63014  43.0006 341.9801 0001583 276.5956 147.9991 15.70786103    11
STARLINK-11541 [DTC]    
1 63015C 25032L   26104.06645833  .00042214  00000+0  32796-3 0  1045
2 63015  43.0007 341.8129 0001655 274.3338 345.7674 15.70811448    12
STARLINK-11545 [DTC]    
1 63016C 25032M   26104.09423611  .00063392  00000+0  49246-3 0  1045
2 63016  43.0005 341.7946 0001611 272.9494  84.2954 15.70802704    17
STARLINK-11400 [DTC]    
1 63017C 25032N   26104.08312500 -.00162120  00000+0 -12578-2 0  1047
2 63017  43.0009 342.2348 0001594 270.9183 233.1667 15.70944088    15
STARLINK-32870          
1 63018C 25032P   26104.09006944  .00023104  00000+0  83674-3 0  1043
2 63018  43.0005 136.1969 0001544 269.7379  74.0167 15.27570148    10
STARLINK-32872          
1 63019C 25032Q   26104.12131944  .00005898  00000+0  21367-3 0  1048
2 63019  43.0003 136.3148 0001394 267.6785 127.8615 15.27571230    19
STARLINK-32677          
1 63020C 25032R   26104.09770833  .00018720  00000+0  67795-3 0  1045
2 63020  43.0004 136.2069 0001522 269.6818  94.9068 15.27573949    10
STARLINK-32929          
1 63021C 25032S   26104.13034722 -.00001145  00000+0 -41469-4 0  1047
2 63021  43.0002 136.0726 0001394 266.6338 256.4340 15.27577178    14
STARLINK-32944          
1 63022C 25032T   26104.07479167  .00017383  00000+0  62966-3 0  1040
2 63022  43.0004 136.6304 0001403 267.2617 210.8914 15.27567327    19
STARLINK-32943          
1 63023C 25032U   26104.09979167  .00009849  00000+0  35679-3 0  1047
2 63023  43.0024 135.9122 0001476 268.4220 227.9068 15.27568986    16
STARLINK-32803          
1 63024C 25032V   26104.11368056  .00006622  00000+0  23991-3 0  1040
2 63024  43.0023 135.7779 0001424 268.5174 325.4710 15.27565948    17
STARLINK-32926          
1 63025C 25032W   26104.13034722  .00001580  00000+0  57201-4 0  1043
2 63025  43.0011 135.5982 0001332 265.4534  95.5977 15.27582738    19
STARLINK-32798          
1 63029C 25034A   26104.09701389 -.00019337  00000+0 -65146-3 0  1041
2 63029  53.1593 106.2879 0001483  86.7597 144.6713 15.30214415    12
STARLINK-32779          
1 63030C 25034B   26104.06159722 -.00006976  00000+0 -23509-3 0  1040
2 63030  53.1580 107.0693 0001336  90.7740 351.3819 15.30198054    19
STARLINK-32716          
1 63031C 25034C   26104.06993056 -.00024451  00000+0 -82397-3 0  1045
2 63031  53.1570  93.5971 0001272  93.2167   3.6488 15.30207825    13
STARLINK-32776          
1 63032C 25034D   26104.11993056 -.00036205  00000+0 -12200-2 0  1047
2 63032  53.1591  93.8917 0001487  82.0396  22.8494 15.30215278    19
STARLINK-32772          
1 63033C 25034E   26104.08729167 -.00027244  00000+0 -91845-3 0  1040
2 63033  53.1569  93.6796 0001218  91.5506  19.5693 15.30197065    15
STARLINK-32830          
1 63034C 25034F   26104.07965278 -.00026830  00000+0 -90437-3 0  1041
2 63034  53.1576  93.7590 0001308  90.6757 315.0775 15.30201903    17
STARLINK-32801          
1 63035C 25034G   26104.06020833 -.00017181  00000+0 -57900-3 0  1047
2 63035  53.1596  94.0220 0001500  87.9360 123.3950 15.30204082    13
STARLINK-32818          
1 63036C 25034H   26104.09562500 -.00031439  00000+0 -10594-2 0  1042
2 63036  53.1579  93.7331 0001331  91.0034  19.5136 15.30212560    12
STARLINK-32810          
1 63037C 25034J   26104.08729167 -.00030671  00000+0 -10336-2 0  1047
2 63037  53.1592  93.8622 0001359  88.5321 289.5230 15.30210015    19
STARLINK-32812          
1 63038C 25034K   26104.12548611 -.00035186  00000+0 -11858-2 0  1042
2 63038  53.1587  93.6346 0001402  86.4588 165.3891 15.30212100    17
STARLINK-32811          
1 63039C 25034L   26104.11159722 -.00032529  00000+0 -10963-2 0  1047
2 63039  53.1588  93.7250 0001372  87.4930  76.1670 15.30209698    14
STARLINK-32832          
1 63040C 25034M   26104.12826389 -.00030819  00000+0 -10387-2 0  1040
2 63040  53.1570  93.4976 0001632  73.3061 257.8345 15.30207102    12
STARLINK-32820          
1 63041C 25034N   26104.11576389 -.00026968  00000+0 -90913-3 0  1046
2 63041  53.1578  93.6233 0001301  88.6670 138.6751 15.30196915    13
STARLINK-32795          
1 63042C 25034P   26104.13937500 -.00029769  00000+0 -10034-2 0  1042
2 63042  53.1574  93.2500 0001021  87.9083  43.3565 15.30205144    12
STARLINK-32827          
1 63043C 25034Q   26104.06298611 -.00006147  00000+0 -20718-3 0  1044
2 63043  53.1575 107.0385 0001381  91.5051   9.9430 15.30195454    15
STARLINK-32735          
1 63044C 25034R   26104.10812500 -.00021098  00000+0 -71126-3 0  1040
2 63044  53.1587 106.1649 0001117  84.9911 242.5160 15.30194429    16
STARLINK-32828          
1 63045C 25034S   26104.10326389 -.00019959  00000+0 -67251-3 0  1043
2 63045  53.1588 106.4580 0001431  86.5863  74.6247 15.30210015    18
STARLINK-32738          
1 63046C 25034T   26104.06854167 -.00020452  00000+0 -68923-3 0  1046
2 63046  53.1585  93.5231 0001321  89.7829  40.1397 15.30205663    17
STARLINK-32590          
1 63047C 25034U   26104.07479167 -.00025810  00000+0 -86997-3 0  1045
2 63047  53.1583  93.8382 0001332  89.4571 260.4210 15.30201016    18
STARLINK-32790          
1 63048C 25034V   26104.09701389 -.00035327  00000+0 -11904-2 0  1041
2 63048  53.1595  93.9382 0001353  86.7092 280.9575 15.30215250    10
STARLINK-32829          
1 63049C 25034W   26104.11090278 -.00027347  00000+0 -92154-3 0  1043
2 63049  53.1570 106.7805 0001502  88.4113 294.5889 15.30210058    16
STARLINK-32816          
1 63050C 25034X   26104.06506944 -.00003568  00000+0 -12024-3 0  1048
2 63050  53.1577 106.7620 0001630  92.0693 154.6405 15.30199173    10
STARLINK-32835          
1 63051C 25034Y   26104.07270833 -.00007526  00000+0 -25362-3 0  1042
2 63051  53.1571 106.8138 0001267  94.2093 153.8853 15.30200500    19
STARLINK-11550 [DTC]    
1 63052C 25035A   26104.12409722  .00043771  00000+0  34014-3 0  1045
2 63052  43.0008 161.5431 0001311 260.6204 190.7603 15.70805152    11
STARLINK-11563 [DTC]    
1 63053C 25035B   26104.10256944  .00033888  00000+0  26337-3 0  1047
2 63053  43.0007 161.7467 0001507 267.1311  32.3047 15.70806979    11
STARLINK-11347 [DTC]    
1 63054C 25035C   26104.11020833  .00048572  00000+0  37751-3 0  1043
2 63054  43.0007 162.1479 0001405 253.6174 268.7102 15.70798796    18
STARLINK-11558 [DTC]    
1 63055C 25035D   26104.11437500  .00027542  00000+0  21404-3 0  1049
2 63055  43.0007 161.3759 0001770 264.0410 222.4826 15.70811079    15
STARLINK-11392 [DTC]    
1 63056C 25035E   26104.13173611  .00036727  00000+0  28540-3 0  1045
2 63056  43.0009 161.8676 0001542 265.0625  79.2697 15.70808441    10
STARLINK-11406 [DTC]    
1 63057C 25035F   26104.08659722  .00072166  00000+0  56050-3 0  1046
2 63057  43.0005 161.9139 0001383 269.1589 269.7502 15.70803755    13
STARLINK-11418 [DTC]    
1 63058C 25035G   26104.09145833  .00046697  00000+0  36292-3 0  1047
2 63058  43.0008 162.3341 0001632 267.1208 118.9793 15.70800546    12
STARLINK-11509 [DTC]    
1 63059C 25035H   26104.13729167  .00029847  00000+0  23197-3 0  1049
2 63059  43.0010 161.9069 0001292 258.3884  87.3452 15.70808980    13
STARLINK-11403 [DTC]    
1 63060C 25035J   26104.07965278  .00014797  00000+0  11503-3 0  1045
2 63060  43.0007 162.1037 0001464 269.4318 170.0834 15.70810734    19
STARLINK-11409 [DTC]    
1 63061C 25035K   26104.12340278  .00031340  00000+0  24355-3 0  1041
2 63061  43.0009 161.9269 0001517 260.0348  31.9589 15.70809887    14
STARLINK-11412 [DTC]    
1 63062C 25035L   26104.10604167  .00054359  00000+0  42244-3 0  1042
2 63062  43.0004 161.8684 0001328 268.8803 350.0979 15.70798968    17
STARLINK-11399 [DTC]    
1 63063C 25035M   26104.12548611  .00046022  00000+0  35763-3 0  1042
2 63063  43.0007 161.4519 0001527 264.9468 224.3701 15.70803797    12
STARLINK-11408 [DTC]    
1 63064C 25035N   26104.08451389  .00032153  00000+0  24991-3 0  1044
2 63064  43.0007 161.6229 0001465 269.5146  17.8828 15.70806358    19
STARLINK-33635          
1 63065C 25035P   26104.06645833  .00048019  00000+0  17397-2 0  1041
2 63065  43.0026 307.2681 0001689 274.5447 331.7989 15.27545557    18
STARLINK-33622          
1 63066C 25035Q   26104.09215278  .00037805  00000+0  13701-2 0  1047
2 63066  43.0017 306.8750 0001644 272.5025 214.3637 15.27540367    12
STARLINK-33628          
1 63067C 25035R   26104.08520833  .00033904  00000+0  12284-2 0  1044
2 63067  43.0003 307.3962 0001444 275.9497 334.5828 15.27551814    13
STARLINK-33627          
1 63068C 25035S   26104.05881944  .00044409  00000+0  16091-2 0  1047
2 63068  43.0018 307.4421 0001632 279.0165 228.6794 15.27544514    11
STARLINK-33620          
1 63069C 25035T   26104.12687500  .00016270  00000+0  58932-3 0  1044
2 63069  43.0023 307.0097 0001568 273.3710 270.2015 15.27569138    12
STARLINK-33604          
1 63070C 25035U   26104.08312500  .00043842  00000+0  15877-2 0  1041
2 63070  43.0014 307.5984 0001405 276.6208 244.5859 15.27562142    10
STARLINK-33624          
1 63071C 25035V   26104.13520833  .00006175  00000+0  22372-3 0  1045
2 63071  43.0009 303.6513 0001419 270.8673 252.2841 15.27567929    12
STARLINK-33623          
1 63072C 25035W   26104.08520833  .00040975  00000+0  14840-2 0  1046
2 63072  43.0007 307.4993 0001442 273.1511 294.9050 15.27561377    14
STARLINK-33586          
1 63073C 25035X   26104.13312500  .00017348  00000+0  62796-3 0  1045
2 63073  43.0018 299.8312 0001418 264.9245  39.7935 15.27590402    19
STARLINK-33605          
1 63074C 25035Y   26104.06229167  .00050258  00000+0  18210-2 0  1042
2 63074  43.0029 307.1295 0001355 282.7107   4.3698 15.27541800    12
STARLINK-32839          
1 63077C 25037A   26104.09840278 -.00054009  00000+0 -45272-2 0  1040
2 63077  69.9994 265.2634 0003003 270.4423  93.9060 14.98348746    19
